TEVEL2-9                
1 63237U 25052AD  26068.70229538  .00018694  00000+0  67240-3 0  9992
2 63237  97.4057 324.3929 0007990 124.2475 235.9522 15.28633834 54816
STARLINK-34127          
1 63810U 25092G   26068.34704646  .00025956  00000+0  94837-3 0  9992
2 63810  43.0019 174.3639 0001537 262.4760  97.5917 15.27615977 48564
